{
  "type": "FeatureCollection",
  "features": [
    {
      "type": "Feature",
      "properties": {
        "norad_id": 35902,
        "name": "COSMOS 2251 DEB",
        "group": "cosmos-2251-debris",
        "lat": -65.5688402759162,
        "lon": -161.10195427111427,
        "alt_km": 776.9269758347718,
        "timestamp": "2025-12-10T18:57:00.461929+00:00",
        "meta_object_name": "COSMOS 2251 DEB",
        "meta_object_id": "1993-036AUR",
        "meta_epoch": "2025-12-10T09:10:56.597664",
        "meta_mean_motion": 14.26883588,
        "meta_eccentricity": 0.0102,
        "meta_inclination": 73.9827,
        "meta_ra_of_asc_node": 238.8593,
        "meta_arg_of_pericenter": 354.0936,
        "meta_mean_anomaly": 5.8999,
        "meta_ephemeris_type": 0,
        "meta_classification_type": "U",
        "meta_norad_cat_id": 35902,
        "meta_element_set_no": 999,
        "meta_rev_at_epoch": 61096,
        "meta_bstar": 0.0017324,
        "meta_mean_motion_dot": 4.42e-05,
        "meta_mean_motion_ddot": 0,
        "tle_line1": "1 35902U 93036AUR 25344.38259951  .00004420  00000+0  17324-2 0  9998",
        "tle_line2": "2 35902  73.9827 238.8593 0102000 354.0936   5.8999 14.26883588610963"
      },
      "geometry": {
        "type": "Point",
        "coordinates": [
          -161.10195427111427,
          -65.5688402759162
        ]
      }
    },
    {
      "type": "Feature",
      "properties": {
        "norad_id": 35905,
        "name": "COSMOS 2251 DEB",
        "group": "cosmos-2251-debris",
        "lat": 72.50916590057713,
        "lon": -30.553588602721884,
        "alt_km": 622.7059575778912,
        "timestamp": "2025-12-10T18:57:00.461939+00:00",
        "meta_object_name": "COSMOS 2251 DEB",
        "meta_object_id": "1993-036AUU",
        "meta_epoch": "2025-12-09T08:52:40.693152",
        "meta_mean_motion": 14.98948103,
        "meta_eccentricity": 0.0090867,
        "meta_inclination": 74.0312,
        "meta_ra_of_asc_node": 217.6533,
        "meta_arg_of_pericenter": 298.4996,
        "meta_mean_anomaly": 60.7061,
        "meta_ephemeris_type": 0,
        "meta_classification_type": "U",
        "meta_norad_cat_id": 35905,
        "meta_element_set_no": 999,
        "meta_rev_at_epoch": 88532,
        "meta_bstar": 0.00069223157,
        "meta_mean_motion_dot": 9.099e-05,
        "meta_mean_motion_ddot": 0,
        "tle_line1": "1 35905U 93036AUU 25343.36991543  .00009099  00000+0  69223-3 0  9991",
        "tle_line2": "2 35905  74.0312 217.6533 0090867 298.4996  60.7061 14.98948103885328"
      },
      "geometry": {
        "type": "Point",
        "coordinates": [
          -30.553588602721884,
          72.50916590057713
        ]
      }
    },
    {
      "type": "Feature",
      "properties": {
        "norad_id": 35959,
        "name": "COSMOS 2251 DEB",
        "group": "cosmos-2251-debris",
        "lat": -34.972343529890516,
        "lon": -55.918409823858,
        "alt_km": 779.3874414533848,
        "timestamp": "2025-12-10T18:57:00.461949+00:00",
        "meta_object_name": "COSMOS 2251 DEB",
        "meta_object_id": "1993-036AUZ",
        "meta_epoch": "2025-12-09T16:20:00.716640",
        "meta_mean_motion": 14.34132745,
        "meta_eccentricity": 0.00214338,
        "meta_inclination": 74.0323,
        "meta_ra_of_asc_node": 317.6642,
        "meta_arg_of_pericenter": 39.0649,
        "meta_mean_anomaly": 321.2045,
        "meta_ephemeris_type": 0,
        "meta_classification_type": "U",
        "meta_norad_cat_id": 35959,
        "meta_element_set_no": 999,
        "meta_rev_at_epoch": 84884,
        "meta_bstar": 0.00022587593,
        "meta_mean_motion_dot": 6.08e-06,
        "meta_mean_motion_ddot": 0,
        "tle_line1": "1 35959U 93036AUZ 25343.68056385  .00000608  00000+0  22588-3 0  9991",
        "tle_line2": "2 35959  74.0323 317.6642 0021433  39.0649 321.2045 14.34132745848848"
      },
      "geometry": {
        "type": "Point",
        "coordinates": [
          -55.918409823858,
          -34.972343529890516
        ]
      }
    },
    {
      "type": "Feature",
      "properties": {
        "norad_id": 35961,
        "name": "COSMOS 2251 DEB",
        "group": "cosmos-2251-debris",
        "lat": 73.12882345740532,
        "lon": -44.340737709533364,
        "alt_km": 770.0641506401362,
        "timestamp": "2025-12-10T18:57:00.461958+00:00",
        "meta_object_name": "COSMOS 2251 DEB",
        "meta_object_id": "1993-036AVB",
        "meta_epoch": "2025-12-10T08:14:51.969120",
        "meta_mean_motion": 14.05370691,
        "meta_eccentricity": 0.0192079,
        "meta_inclination": 73.925,
        "meta_ra_of_asc_node": 208.3903,
        "meta_arg_of_pericenter": 142.227,
        "meta_mean_anomaly": 219.2531,
        "meta_ephemeris_type": 0,
        "meta_classification_type": "U",
        "meta_norad_cat_id": 35961,
        "meta_element_set_no": 999,
        "meta_rev_at_epoch": 62648,
        "meta_bstar": 0.0010782,
        "meta_mean_motion_dot": 2.039e-05,
        "meta_mean_motion_ddot": 0,
        "tle_line1": "1 35961U 93036AVB 25344.34365705  .00002039  00000+0  10782-2 0  9999",
        "tle_line2": "2 35961  73.9250 208.3903 0192079 142.2270 219.2531 14.05370691626488"
      },
      "geometry": {
        "type": "Point",
        "coordinates": [
          -44.340737709533364,
          73.12882345740532
        ]
      }
    },
    {
      "type": "Feature",
      "properties": {
        "norad_id": 35979,
        "name": "COSMOS 2251 DEB",
        "group": "cosmos-2251-debris",
        "lat": -37.649707205697545,
        "lon": 74.98071631177704,
        "alt_km": 690.0086522508318,
        "timestamp": "2025-12-10T18:57:00.461969+00:00",
        "meta_object_name": "COSMOS 2251 DEB",
        "meta_object_id": "1993-036AVV",
        "meta_epoch": "2025-12-09T11:50:03.223968",
        "meta_mean_motion": 14.74576302,
        "meta_eccentricity": 0.00588204,
        "meta_inclination": 74.0104,
        "meta_ra_of_asc_node": 244.7352,
        "meta_arg_of_pericenter": 17.6471,
        "meta_mean_anomaly": 162.3797,
        "meta_ephemeris_type": 0,
        "meta_classification_type": "U",
        "meta_norad_cat_id": 35979,
        "meta_element_set_no": 999,
        "meta_rev_at_epoch": 88585,
        "meta_bstar": 0.0014101379,
        "meta_mean_motion_dot": 9.639e-05,
        "meta_mean_motion_ddot": 0,
        "tle_line1": "1 35979U 93036AVV 25343.49309287  .00009639  00000+0  14101-2 0  9998",
        "tle_line2": "2 35979  74.0104 244.7352 0058820  17.6471 162.3797 14.74576302885855"
      },
      "geometry": {
        "type": "Point",
        "coordinates": [
          74.98071631177704,
          -37.649707205697545
        ]
      }
    },
    {
      "type": "Feature",
      "properties": {
        "norad_id": 35980,
        "name": "COSMOS 2251 DEB",
        "group": "cosmos-2251-debris",
        "lat": -23.65195212129891,
        "lon": -46.30515980577165,
        "alt_km": 679.4023638494064,
        "timestamp": "2025-12-10T18:57:00.461978+00:00",
        "meta_object_name": "COSMOS 2251 DEB",
        "meta_object_id": "1993-036AVW",
        "meta_epoch": "2025-12-02T19:08:08.015136",
        "meta_mean_motion": 14.59062146,
        "meta_eccentricity": 0.00537712,
        "meta_inclination": 73.91,
        "meta_ra_of_asc_node": 141.7735,
        "meta_arg_of_pericenter": 277.5645,
        "meta_mean_anomaly": 81.9413,
        "meta_ephemeris_type": 0,
        "meta_classification_type": "U",
        "meta_norad_cat_id": 35980,
        "meta_element_set_no": 999,
        "meta_rev_at_epoch": 61341,
        "meta_bstar": 0.002036555,
        "meta_mean_motion_dot": 9.752e-05,
        "meta_mean_motion_ddot": 0,
        "tle_line1": "1 35980U 93036AVW 25336.79731499  .00009752  00000+0  20366-2 0  9995",
        "tle_line2": "2 35980  73.9100 141.7735 0053771 277.5645  81.9413 14.59062146613413"
      },
      "geometry": {
        "type": "Point",
        "coordinates": [
          -46.30515980577165,
          -23.65195212129891
        ]
      }
    },
    {
      "type": "Feature",
      "properties": {
        "norad_id": 35982,
        "name": "COSMOS 2251 DEB",
        "group": "cosmos-2251-debris",
        "lat": 67.61618890417445,
        "lon": 126.71181303371434,
        "alt_km": 647.1633238135801,
        "timestamp": "2025-12-10T18:57:00.461988+00:00",
        "meta_object_name": "COSMOS 2251 DEB",
        "meta_object_id": "1993-036AVY",
        "meta_epoch": "2025-12-10T10:15:57.560256",
        "meta_mean_motion": 14.62729028,
        "meta_eccentricity": 0.0064078,
        "meta_inclination": 74.0584,
        "meta_ra_of_asc_node": 351.3546,
        "meta_arg_of_pericenter": 58.3661,
        "meta_mean_anomaly": 302.3736,
        "meta_ephemeris_type": 0,
        "meta_classification_type": "U",
        "meta_norad_cat_id": 35982,
        "meta_element_set_no": 999,
        "meta_rev_at_epoch": 86132,
        "meta_bstar": 0.00082067,
        "meta_mean_motion_dot": 4.278e-05,
        "meta_mean_motion_ddot": 0,
        "tle_line1": "1 35982U 93036AVY 25344.42774954  .00004278  00000+0  82067-3 0  9994",
        "tle_line2": "2 35982  74.0584 351.3546 0064078  58.3661 302.3736 14.62729028861323"
      },
      "geometry": {
        "type": "Point",
        "coordinates": [
          126.71181303371434,
          67.61618890417445
        ]
      }
    }
  ]
}